[{"OBJECT_NAME":"STARLINK-3848","OBJECT_ID":"2022-045AH","EPOCH":"2026-03-09T15:40:23.686752","MEAN_MOTION":15.08831406,"ECCENTRICITY":0.00013114,"INCLINATION":53.2179,"RA_OF_ASC_NODE":189.286,"ARG_OF_PERICENTER":72.931,"MEAN_ANOMALY":287.1826,"EPHEMERIS_TYPE":0,"CLASSIFICATION_TYPE":"U","NORAD_CAT_ID":52362,"ELEMENT_SET_NO":999,"REV_AT_EPOCH":21591,"BSTAR":-7.3986771e-5,"MEAN_MOTION_DOT":-1.465e-5,"MEAN_MOTION_DDOT":0},{"OBJECT_NAME":"OBJECT C","OBJECT_ID":"2025-013C","EPOCH":"2026-03-09T23:45:12.010176","MEAN_MOTION":15.10546453,"ECCENTRICITY":0.00141064,"INCLINATION":97.6424,"RA_OF_ASC_NODE":238.1264,"ARG_OF_PERICENTER":358.7826,"MEAN_ANOMALY":1.3366,"EPHEMERIS_TYPE":0,"CLASSIFICATION_TYPE":"U","NORAD_CAT_ID":62731,"ELEMENT_SET_NO":999,"REV_AT_EPOCH":6235,"BSTAR":0.00030324361,"MEAN_MOTION_DOT":4.947e-5,"MEAN_MOTION_DDOT":0}]
